<?xml version="1.0" encoding="UTF-8"?>
<ndm xmlns:xsi="http://www.w3.org/2001/XMLSchema-instance" xsi:noNamespaceSchemaLocation="https://sanaregistry.org/r/ndmxml_unqualified/ndmxml-2.0.0-master-2.0.xsd">
<omm id="CCSDS_OMM_VERS" version="2.0">
<header><CREATION_DATE/><ORIGINATOR/></header><body><segment><metadata><OBJECT_NAME>KUIPER-00044</OBJECT_NAME><OBJECT_ID>2025-134F</OBJECT_ID><CENTER_NAME>EARTH</CENTER_NAME><REF_FRAME>TEME</REF_FRAME><TIME_SYSTEM>UTC</TIME_SYSTEM><MEAN_ELEMENT_THEORY>SGP4</MEAN_ELEMENT_THEORY></metadata><data><meanElements><EPOCH>2025-12-07T13:43:28.459488</EPOCH><MEAN_MOTION>14.79904484</MEAN_MOTION><ECCENTRICITY>.00114191</ECCENTRICITY><INCLINATION>51.8997</INCLINATION><RA_OF_ASC_NODE>293.9390</RA_OF_ASC_NODE><ARG_OF_PERICENTER>329.3424</ARG_OF_PERICENTER><MEAN_ANOMALY>30.6870</MEAN_ANOMALY></meanElements><tleParameters><EPHEMERIS_TYPE>0</EPHEMERIS_TYPE><CLASSIFICATION_TYPE>U</CLASSIFICATION_TYPE><NORAD_CAT_ID>64505</NORAD_CAT_ID><ELEMENT_SET_NO>999</ELEMENT_SET_NO><REV_AT_EPOCH>2624</REV_AT_EPOCH><BSTAR>.13834344E-2</BSTAR><MEAN_MOTION_DOT>.10343E-3</MEAN_MOTION_DOT><MEAN_MOTION_DDOT>0</MEAN_MOTION_DDOT></tleParameters></data></segment></body></omm>
<omm id="CCSDS_OMM_VERS" version="2.0">
<header><CREATION_DATE/><ORIGINATOR/></header><body><segment><metadata><OBJECT_NAME>KUIPER-00046</OBJECT_NAME><OBJECT_ID>2025-134G</OBJECT_ID><CENTER_NAME>EARTH</CENTER_NAME><REF_FRAME>TEME</REF_FRAME><TIME_SYSTEM>UTC</TIME_SYSTEM><MEAN_ELEMENT_THEORY>SGP4</MEAN_ELEMENT_THEORY></metadata><data><meanElements><EPOCH>2025-12-07T13:40:33.594528</EPOCH><MEAN_MOTION>14.80503699</MEAN_MOTION><ECCENTRICITY>.00122967</ECCENTRICITY><INCLINATION>51.8999</INCLINATION><RA_OF_ASC_NODE>290.3494</RA_OF_ASC_NODE><ARG_OF_PERICENTER>340.3950</ARG_OF_PERICENTER><MEAN_ANOMALY>19.6539</MEAN_ANOMALY></meanElements><tleParameters><EPHEMERIS_TYPE>0</EPHEMERIS_TYPE><CLASSIFICATION_TYPE>U</CLASSIFICATION_TYPE><NORAD_CAT_ID>64506</NORAD_CAT_ID><ELEMENT_SET_NO>999</ELEMENT_SET_NO><REV_AT_EPOCH>2629</REV_AT_EPOCH><BSTAR>.14077733E-2</BSTAR><MEAN_MOTION_DOT>.10684E-3</MEAN_MOTION_DOT><MEAN_MOTION_DDOT>0</MEAN_MOTION_DDOT></tleParameters></data></segment></body></omm>
<omm id="CCSDS_OMM_VERS" version="2.0">
<header><CREATION_DATE/><ORIGINATOR/></header><body><segment><metadata><OBJECT_NAME>KUIPER-00047</OBJECT_NAME><OBJECT_ID>2025-134H</OBJECT_ID><CENTER_NAME>EARTH</CENTER_NAME><REF_FRAME>TEME</REF_FRAME><TIME_SYSTEM>UTC</TIME_SYSTEM><MEAN_ELEMENT_THEORY>SGP4</MEAN_ELEMENT_THEORY></metadata><data><meanElements><EPOCH>2025-12-07T23:10:09.111936</EPOCH><MEAN_MOTION>14.82923469</MEAN_MOTION><ECCENTRICITY>.00084121</ECCENTRICITY><INCLINATION>51.8984</INCLINATION><RA_OF_ASC_NODE>260.3583</RA_OF_ASC_NODE><ARG_OF_PERICENTER>357.8431</ARG_OF_PERICENTER><MEAN_ANOMALY>2.2495</MEAN_ANOMALY></meanElements><tleParameters><EPHEMERIS_TYPE>0</EPHEMERIS_TYPE><CLASSIFICATION_TYPE>U</CLASSIFICATION_TYPE><NORAD_CAT_ID>64507</NORAD_CAT_ID><ELEMENT_SET_NO>999</ELEMENT_SET_NO><REV_AT_EPOCH>2674</REV_AT_EPOCH><BSTAR>.77400283E-3</BSTAR><MEAN_MOTION_DOT>.6119E-4</MEAN_MOTION_DOT><MEAN_MOTION_DDOT>0</MEAN_MOTION_DDOT></tleParameters></data></segment></body></omm>
<omm id="CCSDS_OMM_VERS" version="2.0">
<header><CREATION_DATE/><ORIGINATOR/></header><body><segment><metadata><OBJECT_NAME>KUIPER-00048</OBJECT_NAME><OBJECT_ID>2025-134J</OBJECT_ID><CENTER_NAME>EARTH</CENTER_NAME><REF_FRAME>TEME</REF_FRAME><TIME_SYSTEM>UTC</TIME_SYSTEM><MEAN_ELEMENT_THEORY>SGP4</MEAN_ELEMENT_THEORY></metadata><data><meanElements><EPOCH>2025-12-07T22:38:36.425760</EPOCH><MEAN_MOTION>14.79945832</MEAN_MOTION><ECCENTRICITY>.00034237</ECCENTRICITY><INCLINATION>51.8995</INCLINATION><RA_OF_ASC_NODE>261.2859</RA_OF_ASC_NODE><ARG_OF_PERICENTER>109.7559</ARG_OF_PERICENTER><MEAN_ANOMALY>250.3773</MEAN_ANOMALY></meanElements><tleParameters><EPHEMERIS_TYPE>0</EPHEMERIS_TYPE><CLASSIFICATION_TYPE>U</CLASSIFICATION_TYPE><NORAD_CAT_ID>64508</NORAD_CAT_ID><ELEMENT_SET_NO>999</ELEMENT_SET_NO><REV_AT_EPOCH>2673</REV_AT_EPOCH><BSTAR>.97087938E-3</BSTAR><MEAN_MOTION_DOT>.719E-4</MEAN_MOTION_DOT><MEAN_MOTION_DDOT>0</MEAN_MOTION_DDOT></tleParameters></data></segment></body></omm>
<omm id="CCSDS_OMM_VERS" version="2.0">
<header><CREATION_DATE/><ORIGINATOR/></header><body><segment><metadata><OBJECT_NAME>KUIPER-00049</OBJECT_NAME><OBJECT_ID>2025-134K</OBJECT_ID><CENTER_NAME>EARTH</CENTER_NAME><REF_FRAME>TEME</REF_FRAME><TIME_SYSTEM>UTC</TIME_SYSTEM><MEAN_ELEMENT_THEORY>SGP4</MEAN_ELEMENT_THEORY></metadata><data><meanElements><EPOCH>2025-12-07T19:02:22.066944</EPOCH><MEAN_MOTION>14.79960094</MEAN_MOTION><ECCENTRICITY>.00027581</ECCENTRICITY><INCLINATION>51.9007</INCLINATION><RA_OF_ASC_NODE>275.4191</RA_OF_ASC_NODE><ARG_OF_PERICENTER>359.0105</ARG_OF_PERICENTER><MEAN_ANOMALY>1.0851</MEAN_ANOMALY></meanElements><tleParameters><EPHEMERIS_TYPE>0</EPHEMERIS_TYPE><CLASSIFICATION_TYPE>U</CLASSIFICATION_TYPE><NORAD_CAT_ID>64509</NORAD_CAT_ID><ELEMENT_SET_NO>999</ELEMENT_SET_NO><REV_AT_EPOCH>2652</REV_AT_EPOCH><BSTAR>-.3760929E-3</BSTAR><MEAN_MOTION_DOT>-.309E-4</MEAN_MOTION_DOT><MEAN_MOTION_DDOT>0</MEAN_MOTION_DDOT></tleParameters></data></segment></body></omm>
<omm id="CCSDS_OMM_VERS" version="2.0">
<header><CREATION_DATE/><ORIGINATOR/></header><body><segment><metadata><OBJECT_NAME>KUIPER-00050</OBJECT_NAME><OBJECT_ID>2025-134L</OBJECT_ID><CENTER_NAME>EARTH</CENTER_NAME><REF_FRAME>TEME</REF_FRAME><TIME_SYSTEM>UTC</TIME_SYSTEM><MEAN_ELEMENT_THEORY>SGP4</MEAN_ELEMENT_THEORY></metadata><data><meanElements><EPOCH>2025-12-07T23:16:45.096096</EPOCH><MEAN_MOTION>14.96574455</MEAN_MOTION><ECCENTRICITY>.0004905</ECCENTRICITY><INCLINATION>51.8906</INCLINATION><RA_OF_ASC_NODE>268.6693</RA_OF_ASC_NODE><ARG_OF_PERICENTER>23.5096</ARG_OF_PERICENTER><MEAN_ANOMALY>336.6097</MEAN_ANOMALY></meanElements><tleParameters><EPHEMERIS_TYPE>0</EPHEMERIS_TYPE><CLASSIFICATION_TYPE>U</CLASSIFICATION_TYPE><NORAD_CAT_ID>64510</NORAD_CAT_ID><ELEMENT_SET_NO>999</ELEMENT_SET_NO><REV_AT_EPOCH>2663</REV_AT_EPOCH><BSTAR>.79544814E-3</BSTAR><MEAN_MOTION_DOT>.8907E-4</MEAN_MOTION_DOT><MEAN_MOTION_DDOT>0</MEAN_MOTION_DDOT></tleParameters></data></segment></body></omm>
<omm id="CCSDS_OMM_VERS" version="2.0">
<header><CREATION_DATE/><ORIGINATOR/></header><body><segment><metadata><OBJECT_NAME>KUIPER-00051</OBJECT_NAME><OBJECT_ID>2025-134M</OBJECT_ID><CENTER_NAME>EARTH</CENTER_NAME><REF_FRAME>TEME</REF_FRAME><TIME_SYSTEM>UTC</TIME_SYSTEM><MEAN_ELEMENT_THEORY>SGP4</MEAN_ELEMENT_THEORY></metadata><data><meanElements><EPOCH>2025-12-07T12:37:23.038176</EPOCH><MEAN_MOTION>14.79931007</MEAN_MOTION><ECCENTRICITY>.00019046</ECCENTRICITY><INCLINATION>51.9034</INCLINATION><RA_OF_ASC_NODE>274.1665</RA_OF_ASC_NODE><ARG_OF_PERICENTER>26.4520</ARG_OF_PERICENTER><MEAN_ANOMALY>333.6540</MEAN_ANOMALY></meanElements><tleParameters><EPHEMERIS_TYPE>0</EPHEMERIS_TYPE><CLASSIFICATION_TYPE>U</CLASSIFICATION_TYPE><NORAD_CAT_ID>64511</NORAD_CAT_ID><ELEMENT_SET_NO>999</ELEMENT_SET_NO><REV_AT_EPOCH>2651</REV_AT_EPOCH><BSTAR>.4517557E-2</BSTAR><MEAN_MOTION_DOT>.34393E-3</MEAN_MOTION_DOT><MEAN_MOTION_DDOT>0</MEAN_MOTION_DDOT></tleParameters></data></segment></body></omm>
<omm id="CCSDS_OMM_VERS" version="2.0">
<header><CREATION_DATE/><ORIGINATOR/></header><body><segment><metadata><OBJECT_NAME>KUIPER-00052</OBJECT_NAME><OBJECT_ID>2025-134N</OBJECT_ID><CENTER_NAME>EARTH</CENTER_NAME><REF_FRAME>TEME</REF_FRAME><TIME_SYSTEM>UTC</TIME_SYSTEM><MEAN_ELEMENT_THEORY>SGP4</MEAN_ELEMENT_THEORY></metadata><data><meanElements><EPOCH>2025-12-08T00:00:04.000320</EPOCH><MEAN_MOTION>15.70744413</MEAN_MOTION><ECCENTRICITY>.00044085</ECCENTRICITY><INCLINATION>51.8622</INCLINATION><RA_OF_ASC_NODE>218.8911</RA_OF_ASC_NODE><ARG_OF_PERICENTER>82.2380</ARG_OF_PERICENTER><MEAN_ANOMALY>301.7927</MEAN_ANOMALY></meanElements><tleParameters><EPHEMERIS_TYPE>0</EPHEMERIS_TYPE><CLASSIFICATION_TYPE>U</CLASSIFICATION_TYPE><NORAD_CAT_ID>64512</NORAD_CAT_ID><ELEMENT_SET_NO>999</ELEMENT_SET_NO><REV_AT_EPOCH>560</REV_AT_EPOCH><BSTAR>.34202809E-3</BSTAR><MEAN_MOTION_DOT>.42961E-3</MEAN_MOTION_DOT><MEAN_MOTION_DDOT>0</MEAN_MOTION_DDOT></tleParameters></data></segment></body></omm>

</ndm>
