KUIPER-00044            
1 64505U 25134F   25341.57185717  .00010343  00000+0  13834-2 0  9992
2 64505  51.8997 293.9390 0011419 329.3424  30.6870 14.79904484 26247
KUIPER-00046            
1 64506U 25134G   25341.56983327  .00010684  00000+0  14078-2 0  9994
2 64506  51.8999 290.3494 0012296 340.3950  19.6539 14.80503699 26296
KUIPER-00047            
1 64507U 25134H   25341.96538324  .00006119  00000+0  77400-3 0  9999
2 64507  51.8984 260.3583 0008412 357.8431   2.2495 14.82923469 26741
KUIPER-00048            
1 64508U 25134J   25341.94347715  .00007190  00000+0  97088-3 0  9994
2 64508  51.8995 261.2859 0003423 109.7559 250.3773 14.79945832 26730
KUIPER-00049            
1 64509U 25134K   25341.79331096 -.00003090  00000+0 -37609-3 0  9993
2 64509  51.9007 275.4191 0002758 359.0105   1.0851 14.79960094 26521
KUIPER-00050            
1 64510U 25134L   25341.96996639  .00008907  00000+0  79545-3 0  9999
2 64510  51.8906 268.6693 0004905  23.5096 336.6097 14.96574455 26631
KUIPER-00051            
1 64511U 25134M   25341.52596109  .00034393  00000+0  45176-2 0  9990
2 64511  51.9034 274.1665 0001904  26.4520 333.6540 14.79931007 26514
KUIPER-00052            
1 64512U 25134N   25342.00004630  .00042961  00000+0  34203-3 0  9998
2 64512  51.8622 218.8911 0004408  82.2380 301.7927 15.70744413  5609
